0 BREEZE-M DEB
1 32028U 06006F   13287.20040652  .00002381  00000-0  37023-2 0  3408
2 32028 051.7447 338.7356 5166304 359.8962 010.9313 05.13289927122915
0 BREEZE-M DEB
1 32028U 06006F   13288.17429019  .00002853  00000-0  43847-2 0  3419
2 32028 051.7445 338.0551 5166319 000.4016 010.4952 05.13300128122964
0 BREEZE-M DEB
1 32028U 06006F   13293.05014215  .00002960  00000-0  44709-2 0  3428
2 32028 051.7455 334.6483 5166881 002.9212 020.6311 05.13321028123213
0 BREEZE-M DEB
1 32028U 06006F   13295.96882166  .00002715  00000-0  41486-2 0  3436
2 32028 051.7419 332.6043 5166986 004.4359 014.2570 05.13341047123363
